[{"OBJECT_NAME":"COSMOS 2581","OBJECT_ID":"2025-026A","EPOCH":"2026-03-09T19:42:28.866816","MEAN_MOTION":14.94736104,"ECCENTRICITY":0.0010574,"INCLINATION":81.9986,"RA_OF_ASC_NODE":175.8565,"ARG_OF_PERICENTER":32.7244,"MEAN_ANOMALY":327.4629,"EPHEMERIS_TYPE":0,"CLASSIFICATION_TYPE":"U","NORAD_CAT_ID":62902,"ELEMENT_SET_NO":999,"REV_AT_EPOCH":5937,"BSTAR":0.00021137,"MEAN_MOTION_DOT":2.32e-5,"MEAN_MOTION_DDOT":0},{"OBJECT_NAME":"SPIRONE","OBJECT_ID":"2025-274H","EPOCH":"2026-03-09T18:01:36.945120","MEAN_MOTION":14.93072072,"ECCENTRICITY":0.00119665,"INCLINATION":97.7435,"RA_OF_ASC_NODE":359.5247,"ARG_OF_PERICENTER":353.7886,"MEAN_ANOMALY":6.3183,"EPHEMERIS_TYPE":0,"CLASSIFICATION_TYPE":"U","NORAD_CAT_ID":66657,"ELEMENT_SET_NO":999,"REV_AT_EPOCH":1538,"BSTAR":0.00040236773,"MEAN_MOTION_DOT":4.139e-5,"MEAN_MOTION_DDOT":0}]
